#aV2006 10 10  0  0   .00000000      96 DD+AD WGS84 FIT  NGA
## 1396 172800.00000000   900.00000000 54018  .0000000000000
+   30     1  2  3  4  5  6  7  8  9 10 11 13 14 15 16 17 18
+         19 20 21 22 23 24 25 26 27 28 29 30 31  0  0  0  0
+          0  0  0  0  0  0  0  0  0  0  0  0  0  0  0  0  0
+          0  0  0  0  0  0  0  0  0  0  0  0  0  0  0  0  0
+          0  0  0  0  0  0  0  0  0  0  0  0  0  0  0  0  0
++         0  0  0  0  0  0  0  0  0  0  0  0  0  0  0  0  0
++         0  0  0  0  0  0  0  0  0  0  0  0  0  0  0  0  0
++         0  0  0  0  0  0  0  0  0  0  0  0  0  0  0  0  0
++         0  0  0  0  0  0  0  0  0  0  0  0  0  0  0  0  0
++         0  0  0  0  0  0  0  0  0  0  0  0  0  0  0  0  0
%c cc cc ccc ccc cccc cccc cccc cccc ccccc ccccc ccccc ccccc
%c cc cc ccc ccc cccc cccc cccc cccc ccccc ccccc ccccc ccccc
%f  0.0000000  0.000000000  0.00000000000  0.000000000000000
%f  0.0000000  0.000000000  0.00000000000  0.000000000000000
%i    0    0    0    0      0      0      0      0         0
%i    0    0    0    0      0      0      0      0         0
/*      NGA, ST. LOUIS,MO.                                  
/*   EPHEMERIS COMPUTED FROM  3 DAYS OF DATA                
/* CCCCCCCCCCCCCCCCCCCCCCCCCCCCCCCCCCCCCCCCCCCCCCCCCCCCCCCCC
/* CCCCCCCCCCCCCCCCCCCCCCCCCCCCCCCCCCCCCCCCCCCCCCCCCCCCCCCCC
*  2006 10 10  5 45   .00000000                                                 
P  1 -13743.043394  11750.537464 -19231.237592     81.653080                    
V  1   1184.789258 -24794.211047 -15895.015234       .023418                    
P  2  23245.730252 -12557.901210    525.510510     43.262812                    
V  2   2428.375191   2583.143445 -31627.549106       .037720                    
P  3 -12018.787951  16122.980793  17006.499060    259.955683                    
V  3  -3607.050052 -22040.666843  18472.022259       .687294                    
P  4  24196.759061  -3280.419989 -10917.275666    321.946015                    
V  4 -11152.047811   8340.197019 -26978.227711       .050886                    
P  5  -3052.187944 -17906.015631 -19653.708293    361.284980                    
V  5  22283.359812  10280.935134 -12816.567833       .048330                    
P  6  -8170.126625 -22613.438750  11409.105252    583.212643                    
V  6   3263.402616 -14242.449640 -26391.690681      -.077101                    
P  7 -15922.112556   -506.382699  21590.096330    515.894022                    
V  7   -241.290490 -26724.275056   -906.640338      -.056117                    
P  8  19772.794428   3828.748533  17392.881667    -82.522238                    
V  8 -19577.711245  10463.261116  19376.848970      -.012932                    
P  9   9702.939552 -18750.071832 -16537.850734     39.596077                    
V  9  18320.916777  -8300.958699  21137.666320       .016789                    
P 10  15068.566388  -6902.563697  20727.957092     90.883845                    
V 10  21545.596149  15324.342196 -10208.868437       .005524                    
P 11  -5301.272002  20154.386482 -16398.695399    354.421635                    
V 11 -18791.289967   9928.583992  18635.915048       .017814                    
P 13   6817.697298  22113.910119  12983.181900    101.876589                    
V 13  -2679.883057  16411.480188 -26321.716390       .034674                    
P 14 -13978.472348  -6028.467887 -21700.099954     -3.809589                    
V 14   2049.578604 -27570.288371   6246.542192       .008135                    
P 15 -20770.432204  -3650.100198  16266.628233    -14.571131                    
V 15  18400.185805  -9758.110038  20703.793860      -.110370                    
P 16 -17793.206462   4429.266953  19336.825155     80.681889                    
V 16 -19688.340842 -14367.844198 -14764.111783       .035069                    
P 17  14569.663221   6488.781627 -21259.971295     93.283162                    
V 17  -1880.734601  26905.631261   6820.236041      -.012999                    
P 18 -18823.966855 -18148.713178   5693.764455   -250.667549                    
V 18   7217.994667   1921.452314  30343.082504      -.006994                    
P 19  -8629.928483  23595.484046   8597.086893     22.975764                    
V 19  -1523.779828 -11029.782100  29164.880486       .034293                    
P 20   6600.257139  18835.888346 -17625.152610    -22.125961                    
V 20 -19730.901259 -10346.764321 -18508.735624       .001584                    
P 21 -14332.402596  -9635.287589  20394.035065     56.456974                    
V 21  22818.296401 -11722.694343   9995.120181       .016859                    
P 22 -23288.945120 -10803.124038  -6699.461083    140.757709                    
V 22  -5403.840896  -7438.089942  30024.819872       .030372                    
P 23    208.235359  26369.117249   2047.849332    138.584860                    
V 23  -2817.154660   2592.490853 -31935.977372       .004336                    
P 24  24112.535361  -2444.828219 -11024.943555     42.728377                    
V 24 -11970.680053   7987.074189 -27143.014489       .031763                    
P 25 -23724.849778  10464.607288  -5704.656926    373.432298                    
V 25   4976.667088  -6548.752083 -30432.214315       .169895                    
P 26   7951.031002 -23018.609026   9462.969592   -287.376631                    
V 26   1229.812599  12880.329034  29617.281646      -.153912                    
P 27  11650.156919  10880.484223  21894.107955     72.032576                    
V 27 -22458.453185  13736.750837   4973.774585       .019265                    
P 28  23049.308079  13269.227849  -2582.096770     16.866631                    
V 28   1585.923013   4114.336362  31298.519462      -.008656                    
P 29   9747.301654 -20660.771952  13505.540026     52.189370                    
V 29   1010.479431  16901.640740  25851.680716       .501142                    
P 30 -15109.825898 -18727.704714 -11669.633915     12.696093                    
V 30  13699.497140   5032.066433 -26382.642087       .012035                    
P 31 -24538.805782   7456.877010  -6789.186897    -82.571214                    
V 31   6582.950594  -6535.895094 -30100.390162       .248774                    
EOF
